{
  "type": "FeatureCollection",
  "features": [
    {
      "type": "Feature",
      "properties": {
        "norad_id": 40069,
        "name": "METEOR-M 2",
        "group": "weather",
        "lat": -7.338390321307642,
        "lon": 135.21029634033982,
        "alt_km": 822.3447032428958,
        "timestamp": "2025-12-04T09:47:37.165911+00:00",
        "meta_object_name": "METEOR-M 2",
        "meta_object_id": "2014-037A",
        "meta_epoch": "2025-12-04T00:28:03.055584",
        "meta_mean_motion": 14.21381341,
        "meta_eccentricity": 0.00047131,
        "meta_inclination": 98.4893,
        "meta_ra_of_asc_node": 315.9388,
        "meta_arg_of_pericenter": 238.7315,
        "meta_mean_anomaly": 121.3402,
        "meta_ephemeris_type": 0,
        "meta_classification_type": "U",
        "meta_norad_cat_id": 40069,
        "meta_element_set_no": 999,
        "meta_rev_at_epoch": 59159,
        "meta_bstar": 0.00015539723,
        "meta_mean_motion_dot": 2.97e-06,
        "meta_mean_motion_ddot": 0,
        "tle_line1": "1 40069U 14037A   25338.01947981  .00000297  00000+0  15540-3 0  9999",
        "tle_line2": "2 40069  98.4893 315.9388 0004713 238.7315 121.3402 14.21381341591593"
      },
      "geometry": {
        "type": "Point",
        "coordinates": [
          135.21029634033982,
          -7.338390321307642
        ]
      }
    },
    {
      "type": "Feature",
      "properties": {
        "norad_id": 40267,
        "name": "HIMAWARI-8",
        "group": "weather",
        "lat": -0.008332912753507626,
        "lon": 1.0570579081787876,
        "alt_km": 35785.30079676746,
        "timestamp": "2025-12-04T09:47:37.165923+00:00",
        "meta_object_name": "HIMAWARI-8",
        "meta_object_id": "2014-060A",
        "meta_epoch": "2025-12-03T18:51:33.971040",
        "meta_mean_motion": 1.00270422,
        "meta_eccentricity": 0.00012657,
        "meta_inclination": 0.0059,
        "meta_ra_of_asc_node": 94.3673,
        "meta_arg_of_pericenter": 190.2827,
        "meta_mean_anomaly": 211.7912,
        "meta_ephemeris_type": 0,
        "meta_classification_type": "U",
        "meta_norad_cat_id": 40267,
        "meta_element_set_no": 999,
        "meta_rev_at_epoch": 4080,
        "meta_bstar": 0,
        "meta_mean_motion_dot": -2.58e-06,
        "meta_mean_motion_ddot": 0,
        "tle_line1": "1 40267U 14060A   25337.78580985 -.00000258  00000+0  00000+0 0  9994",
        "tle_line2": "2 40267   0.0059  94.3673 0001265 190.2827 211.7912  1.00270422 40803"
      },
      "geometry": {
        "type": "Point",
        "coordinates": [
          1.0570579081787876,
          -0.008332912753507626
        ]
      }
    },
    {
      "type": "Feature",
      "properties": {
        "norad_id": 40367,
        "name": "FENGYUN 2G",
        "group": "weather",
        "lat": -4.6653237983489015,
        "lon": -39.98330681468244,
        "alt_km": 35779.76854388875,
        "timestamp": "2025-12-04T09:47:37.165935+00:00",
        "meta_object_name": "FENGYUN 2G",
        "meta_object_id": "2014-090A",
        "meta_epoch": "2025-12-03T20:01:44.338080",
        "meta_mean_motion": 1.00267283,
        "meta_eccentricity": 0.00031126,
        "meta_inclination": 5.144,
        "meta_ra_of_asc_node": 75.2006,
        "meta_arg_of_pericenter": 193.8715,
        "meta_mean_anomaly": 203.9913,
        "meta_ephemeris_type": 0,
        "meta_classification_type": "U",
        "meta_norad_cat_id": 40367,
        "meta_element_set_no": 999,
        "meta_rev_at_epoch": 4004,
        "meta_bstar": 0,
        "meta_mean_motion_dot": -2.88e-06,
        "meta_mean_motion_ddot": 0,
        "tle_line1": "1 40367U 14090A   25337.83454095 -.00000288  00000+0  00000+0 0  9999",
        "tle_line2": "2 40367   5.1440  75.2006 0003112 193.8715 203.9913  1.00267283 40041"
      },
      "geometry": {
        "type": "Point",
        "coordinates": [
          -39.98330681468244,
          -4.6653237983489015
        ]
      }
    },
    {
      "type": "Feature",
      "properties": {
        "norad_id": 40732,
        "name": "METEOSAT-11 (MSG-4)",
        "group": "weather",
        "lat": 0.9966494323590389,
        "lon": -130.11098283008158,
        "alt_km": 35783.16759035006,
        "timestamp": "2025-12-04T09:47:37.165949+00:00",
        "meta_object_name": "METEOSAT-11 (MSG-4)",
        "meta_object_id": "2015-034A",
        "meta_epoch": "2025-12-03T13:48:01.944864",
        "meta_mean_motion": 1.0027785,
        "meta_eccentricity": 2.411e-05,
        "meta_inclination": 2.7126,
        "meta_ra_of_asc_node": 72.0252,
        "meta_arg_of_pericenter": 162.3254,
        "meta_mean_anomaly": 54.7965,
        "meta_ephemeris_type": 0,
        "meta_classification_type": "U",
        "meta_norad_cat_id": 40732,
        "meta_element_set_no": 999,
        "meta_rev_at_epoch": 525,
        "meta_bstar": 0,
        "meta_mean_motion_dot": 8.1e-07,
        "meta_mean_motion_ddot": 0,
        "tle_line1": "1 40732U 15034A   25337.57502251  .00000081  00000+0  00000+0 0  9993",
        "tle_line2": "2 40732   2.7126  72.0252 0000241 162.3254  54.7965  1.00277850  5252"
      },
      "geometry": {
        "type": "Point",
        "coordinates": [
          -130.11098283008158,
          0.9966494323590389
        ]
      }
    },
    {
      "type": "Feature",
      "properties": {
        "norad_id": 41105,
        "name": "ELEKTRO-L 2",
        "group": "weather",
        "lat": 4.5210349650685675,
        "lon": -154.02521895104175,
        "alt_km": 35778.77852098263,
        "timestamp": "2025-12-04T09:47:37.165961+00:00",
        "meta_object_name": "ELEKTRO-L 2",
        "meta_object_id": "2015-074A",
        "meta_epoch": "2025-12-04T01:40:17.137056",
        "meta_mean_motion": 1.00269777,
        "meta_eccentricity": 0.000402,
        "meta_inclination": 6.2023,
        "meta_ra_of_asc_node": 72.9293,
        "meta_arg_of_pericenter": 197.7104,
        "meta_mean_anomaly": 173.0548,
        "meta_ephemeris_type": 0,
        "meta_classification_type": "U",
        "meta_norad_cat_id": 41105,
        "meta_element_set_no": 999,
        "meta_rev_at_epoch": 3655,
        "meta_bstar": 0,
        "meta_mean_motion_dot": -1.05e-06,
        "meta_mean_motion_ddot": 0,
        "tle_line1": "1 41105U 15074A   25338.06964279 -.00000105  00000+0  00000+0 0  9997",
        "tle_line2": "2 41105   6.2023  72.9293 0004020 197.7104 173.0548  1.00269777 36559"
      },
      "geometry": {
        "type": "Point",
        "coordinates": [
          -154.02521895104175,
          4.5210349650685675
        ]
      }
    },
    {
      "type": "Feature",
      "properties": {
        "norad_id": 41752,
        "name": "INSAT-3DR",
        "group": "weather",
        "lat": -0.044638677928718104,
        "lon": -65.53767918076429,
        "alt_km": 35731.258286191645,
        "timestamp": "2025-12-04T09:47:37.165973+00:00",
        "meta_object_name": "INSAT-3DR",
        "meta_object_id": "2016-054A",
        "meta_epoch": "2025-12-04T01:57:38.699424",
        "meta_mean_motion": 1.00269584,
        "meta_eccentricity": 0.0014501,
        "meta_inclination": 0.0698,
        "meta_ra_of_asc_node": 88.7967,
        "meta_arg_of_pericenter": 180.3678,
        "meta_mean_anomaly": 267.435,
        "meta_ephemeris_type": 0,
        "meta_classification_type": "U",
        "meta_norad_cat_id": 41752,
        "meta_element_set_no": 999,
        "meta_rev_at_epoch": 3386,
        "meta_bstar": 0,
        "meta_mean_motion_dot": -6.1e-07,
        "meta_mean_motion_ddot": 0,
        "tle_line1": "1 41752U 16054A   25338.08169791 -.00000061  00000+0  00000+0 0  9993",
        "tle_line2": "2 41752   0.0698  88.7967 0014501 180.3678 267.4350  1.00269584 33865"
      },
      "geometry": {
        "type": "Point",
        "coordinates": [
          -65.53767918076429,
          -0.044638677928718104
        ]
      }
    },
    {
      "type": "Feature",
      "properties": {
        "norad_id": 41836,
        "name": "HIMAWARI-9",
        "group": "weather",
        "lat": 0.017362617572060514,
        "lon": 1.1291854308900675,
        "alt_km": 35781.43863351528,
        "timestamp": "2025-12-04T09:47:37.165986+00:00",
        "meta_object_name": "HIMAWARI-9",
        "meta_object_id": "2016-064A",
        "meta_epoch": "2025-12-03T18:51:33.971904",
        "meta_mean_motion": 1.00270864,
        "meta_eccentricity": 0.00023308,
        "meta_inclination": 0.0194,
        "meta_ra_of_asc_node": 347.0429,
        "meta_arg_of_pericenter": 314.766,
        "meta_mean_anomaly": 194.6947,
        "meta_ephemeris_type": 0,
        "meta_classification_type": "U",
        "meta_norad_cat_id": 41836,
        "meta_element_set_no": 999,
        "meta_rev_at_epoch": 3325,
        "meta_bstar": 0,
        "meta_mean_motion_dot": 0,
        "meta_mean_motion_ddot": 0,
        "tle_line1": "1 41836U 16064A   25337.78580986  .00000000  00000+0  00000+0 0  9998",
        "tle_line2": "2 41836   0.0194 347.0429 0002330 314.7660 194.6947  1.00270864 33253"
      },
      "geometry": {
        "type": "Point",
        "coordinates": [
          1.1291854308900675,
          0.017362617572060514
        ]
      }
    }
  ]
}